[{"OBJECT_NAME":"JILIN-1 07","OBJECT_ID":"2018-008E","EPOCH":"2026-03-09T22:24:26.445888","MEAN_MOTION":15.32987507,"ECCENTRICITY":0.00101791,"INCLINATION":97.1876,"RA_OF_ASC_NODE":91.5817,"ARG_OF_PERICENTER":62.7832,"MEAN_ANOMALY":297.4447,"EPHEMERIS_TYPE":0,"CLASSIFICATION_TYPE":"U","NORAD_CAT_ID":43159,"ELEMENT_SET_NO":999,"REV_AT_EPOCH":44978,"BSTAR":0.00036439521,"MEAN_MOTION_DOT":0.00011559,"MEAN_MOTION_DDOT":0},{"OBJECT_NAME":"STARLINK-32345","OBJECT_ID":"2024-154T","EPOCH":"2026-03-09T21:41:19.711968","MEAN_MOTION":15.30186512,"ECCENTRICITY":0.00012391,"INCLINATION":53.1603,"RA_OF_ASC_NODE":283.1347,"ARG_OF_PERICENTER":104.4531,"MEAN_ANOMALY":255.6607,"EPHEMERIS_TYPE":0,"CLASSIFICATION_TYPE":"U","NORAD_CAT_ID":60920,"ELEMENT_SET_NO":999,"REV_AT_EPOCH":8637,"BSTAR":7.674908e-6,"MEAN_MOTION_DOT":-1.32e-6,"MEAN_MOTION_DDOT":0}]
